NORAD_CAT_ID,OBJECT_NAME,OBJECT_TYPE,EPOCH,MEAN_MOTION,ECCENTRICITY,INCLINATION,RA_OF_ASC_NODE,ARG_OF_PERICENTER,MEAN_ANOMALY,BSTAR,MEAN_MOTION_DOT,MEAN_MOTION_DDOT,TLE_LINE0,TLE_LINE1,TLE_LINE2,SEMIMAJOR_AXIS,PERIOD,APOGEE,PERIGEE,DECAYED
55308.0,STARLINK-5292,PAYLOAD,2024-02-06 15:20:47,14.98336759,0.0002804,70.001,125.8939,263.989,96.0949,3.2396e-05,2.94e-06,0.0,0 STARLINK-5292,1 55308U 23010AR  24037.63943901  .00000294  00000-0  32396-4 0  9990,2 55308  70.0010 125.8939 0002804 263.9890  96.0949 14.98336759 59308,6950.172,96.107,573.986,570.088,0.0
55308.0,STARLINK-5292,PAYLOAD,2024-02-07 12:10:33,14.98324624,0.0002803,70.0005,123.7057,265.4794,94.6045,9.2463e-05,1.01e-05,0.0,0 STARLINK-5292,1 55308U 23010AR  24038.50732665  .00001010  00000-0  92463-4 0  9998,2 55308  70.0005 123.7057 0002803 265.4794  94.6045 14.98324624 59432,6950.21,96.107,574.023,570.126,0.0
55308.0,STARLINK-5292,PAYLOAD,2024-02-07 13:46:41,14.9831459,0.0002777,70.0007,123.5376,264.4811,95.6032,0.00025685,2.972e-05,0.0,0 STARLINK-5292,1 55308U 23010AR  24038.57408879  .00002972  00000-0  25685-3 0  9991,2 55308  70.0007 123.5376 0002777 264.4811  95.6032 14.98314590 60637,6950.241,96.108,574.036,570.175,0.0
55308.0,STARLINK-5292,PAYLOAD,2024-02-07 15:22:49,14.983231,0.0002771,70.0008,123.3697,264.8062,95.2781,0.0001414,1.594e-05,0.0,0 STARLINK-5292,1 55308U 23010AR  24038.64084673  .00001594  00000-0  14140-3 0  9994,2 55308  70.0008 123.3697 0002771 264.8062  95.2781 14.98323100 60643,6950.214,96.107,574.005,570.153,0.0
55308.0,STARLINK-5292,PAYLOAD,2024-02-08 13:48:42,14.98329749,0.0002816,70.0003,121.0124,264.5249,95.5589,-6.7652e-05,-9e-06,0.0,0 STARLINK-5292,1 55308U 23010AR  24039.57548904 -.00000900  00000-0 -67652-4 0  9998,2 55308  70.0003 121.0124 0002816 264.5249  95.5589 14.98329749 60781,6950.194,96.107,574.016,570.101,0.0
55308.0,STARLINK-5292,PAYLOAD,2024-02-08 15:24:50,14.98331059,0.0002806,70.0003,120.8443,264.2311,95.8528,-5.0545e-05,-6.96e-06,0.0,0 STARLINK-5292,1 55308U 23010AR  24039.64224770 -.00000696  00000-0 -50545-4 0  9993,2 55308  70.0003 120.8443 0002806 264.2311  95.8528 14.98331059 59600,6950.19,96.107,574.005,570.104,0.0
55308.0,STARLINK-5292,PAYLOAD,2024-02-09 13:50:42,14.98332861,0.0002708,70.0004,118.4877,262.7807,97.3044,0.00012347,1.381e-05,0.0,0 STARLINK-5292,1 55308U 23010AR  24040.57688100  .00001381  00000-0  12347-3 0  9995,2 55308  70.0004 118.4877 0002708 262.7807  97.3044 14.98332861 60939,6950.184,96.107,573.931,570.167,0.0
55308.0,STARLINK-5292,PAYLOAD,2024-02-09 15:26:50,14.98338462,0.0002808,70.0001,118.3191,267.0574,93.0263,9.3969e-05,1.029e-05,0.0,0 STARLINK-5292,1 55308U 23010AR  24040.64363793  .00001029  00000-0  93969-4 0  9990,2 55308  70.0001 118.3191 0002808 267.0574  93.0263 14.98338462 59751,6950.167,96.106,573.983,570.08,0.0
55308.0,STARLINK-5292,PAYLOAD,2024-02-10 04:15:55,14.9832859,0.000217,70.0021,116.974,253.0593,107.0329,6.2734e-05,6.56e-06,0.0,0 STARLINK-5292,1 55308U 23010AR  24041.17772503  .00000656  00000-0  62734-4 0  9993,2 55308  70.0021 116.9740 0002170 253.0593 107.0329 14.98328590 59834,6950.197,96.107,573.57,570.554,0.0
55308.0,STARLINK-5292,PAYLOAD,2024-02-10 12:16:36,14.98319257,0.000315,69.9987,116.1296,269.8962,90.1836,-6.0647e-05,-8.16e-06,0.0,0 STARLINK-5292,1 55308U 23010AR  24041.51153524 -.00000816  00000-0 -60647-4 0  9998,2 55308  69.9987 116.1296 0003150 269.8962  90.1836 14.98319257 59884,6950.226,96.108,574.28,569.902,0.0
55308.0,STARLINK-5292,PAYLOAD,2024-02-10 13:52:44,14.98319636,0.0003093,69.9988,115.9613,267.9485,92.132,-5.1078e-05,-7.02e-06,0.0,0 STARLINK-5292,1 55308U 23010AR  24041.57829505 -.00000702  00000-0 -51078-4 0  9995,2 55308  69.9988 115.9613 0003093 267.9485  92.1320 14.98319636 61086,6950.225,96.108,574.24,569.94,0.0
55308.0,STARLINK-5292,PAYLOAD,2024-02-10 15:28:52,14.98321118,0.0003181,69.9992,115.7934,270.4651,89.6143,-3.4815e-05,-5.08e-06,0.0,0 STARLINK-5292,1 55308U 23010AR  24041.64505416 -.00000508  00000-0 -34815-4 0  9999,2 55308  69.9992 115.7934 0003181 270.4651  89.6143 14.98321118 61090,6950.22,96.108,574.296,569.874,0.0
55308.0,STARLINK-5292,PAYLOAD,2024-02-11 04:17:56,14.98332239,0.0003416,69.9988,114.4464,275.2107,84.8662,-4.9919e-05,-6.89e-06,0.0,0 STARLINK-5292,1 55308U 23010AR  24042.17912880 -.00000689  00000-0 -49919-4 0  9996,2 55308  69.9988 114.4464 0003416 275.2107  84.8662 14.98332239 59983,6950.186,96.107,574.425,569.677,0.0
55308.0,STARLINK-5292,PAYLOAD,2024-02-11 12:18:35,14.98342945,0.0003074,69.9993,113.6055,270.4221,89.6586,9.213e-05,1.007e-05,0.0,0 STARLINK-5292,1 55308U 23010AR  24042.51291653  .00001007  00000-0  92130-4 0  9998,2 55308  69.9993 113.6055 0003074 270.4221  89.6586 14.98342945 60031,6950.153,96.106,574.154,569.881,0.0
55308.0,STARLINK-5292,PAYLOAD,2024-02-11 13:54:43,14.98346238,0.0003027,69.9995,113.4371,269.7582,90.323,0.00011282,1.254e-05,0.0,0 STARLINK-5292,1 55308U 23010AR  24042.57967332  .00001254  00000-0  11282-3 0  9990,2 55308  69.9995 113.4371 0003027 269.7582  90.3230 14.98346238 61238,6950.143,96.106,574.111,569.904,0.0
55308.0,STARLINK-5292,PAYLOAD,2024-02-12 04:19:56,14.98328051,0.0002823,70.0,111.9229,264.7682,95.3155,0.00017615,2.009e-05,0.0,0 STARLINK-5292,1 55308U 23010AR  24043.18051920  .00002009  00000-0  17615-3 0  9990,2 55308  70.0000 111.9229 0002823 264.7682  95.3155 14.98328051 60134,6950.199,96.107,574.026,570.102,0.0
55308.0,STARLINK-5292,PAYLOAD,2024-02-12 13:56:45,14.98330498,0.0002654,70.0004,110.914,264.7176,95.368,0.00017868,2.04e-05,0.0,0 STARLINK-5292,1 55308U 23010AR  24043.58107779  .00002040  00000-0  17868-3 0  9993,2 55308  70.0004 110.9140 0002654 264.7176  95.3680 14.98330498 61388,6950.191,96.107,573.901,570.212,0.0
55308.0,STARLINK-5292,PAYLOAD,2024-02-13 04:21:58,14.98331285,0.0001722,70.0024,109.4007,274.5191,85.5772,-8.3055e-05,-1.084e-05,0.0,0 STARLINK-5292,1 55308U 23010AR  24044.18192708 -.00001084  00000-0 -83055-4 0  9997,2 55308  70.0024 109.4007 0001722 274.5191  85.5772 14.98331285 60282,6950.189,96.107,573.251,570.857,0.0
55308.0,STARLINK-5292,PAYLOAD,2024-02-13 13:58:46,14.98328353,0.0002658,70.001,108.3898,263.407,96.6787,-0.00013536,-1.708e-05,0.0,0 STARLINK-5292,1 55308U 23010AR  24044.58248840 -.00001708  00000-0 -13536-3 0  9999,2 55308  70.0010 108.3898 0002658 263.4070  96.6787 14.98328353 61535,6950.198,96.107,573.91,570.216,0.0
55308.0,STARLINK-5292,PAYLOAD,2024-02-13 21:59:27,14.9832946,0.0002734,70.0007,107.5461,266.3453,93.7393,-0.00010507,-1.346e-05,0.0,0 STARLINK-5292,1 55308U 23010AR  24044.91628686 -.00001346  00000-0 -10507-3 0  9999,2 55308  70.0007 107.5461 0002734 266.3453  93.7393 14.98329460 61586,6950.195,96.107,573.96,570.159,0.0
55308.0,STARLINK-5292,PAYLOAD,2024-02-14 04:23:59,14.98332094,0.0002941,69.9997,106.8723,268.7912,91.291,-2.8225e-05,-4.3e-06,0.0,0 STARLINK-5292,1 55308U 23010AR  24045.18332224 -.00000430  00000-0 -28225-4 0  9999,2 55308  69.9997 106.8723 0002941 268.7912  91.2910 14.98332094 60438,6950.186,96.107,574.095,570.007,0.0
55308.0,STARLINK-5292,PAYLOAD,2024-02-14 10:48:30,14.9833834,0.000302,69.9995,106.2003,270.6331,89.4482,1.8891e-05,1.32e-06,0.0,0 STARLINK-5292,1 55308U 23010AR  24045.45035595  .00000132  00000-0  18891-4 0  9995,2 55308  69.9995 106.2003 0003020 270.6331  89.4482 14.98338340 60474,6950.167,96.106,574.131,569.933,0.0
55308.0,STARLINK-5292,PAYLOAD,2024-02-14 14:00:46,14.98341635,0.0002914,69.9997,105.8631,269.6113,90.4712,7.7613e-05,8.33e-06,0.0,0 STARLINK-5292,1 55308U 23010AR  24045.58387215  .00000833  00000-0  77613-4 0  9993,2 55308  69.9997 105.8631 0002914 269.6113  90.4712 14.98341635 61688,6950.157,96.106,574.047,569.997,0.0
55308.0,STARLINK-5292,PAYLOAD,2024-02-15 04:26:00,14.98321425,0.0002405,70.0009,104.3482,265.6937,94.3948,8.4964e-05,9.21e-06,0.0,0 STARLINK-5292,1 55308U 23010AR  24046.18472518  .00000921  00000-0  84964-4 0  9996,2 55308  70.0009 104.3482 0002405 265.6937  94.3948 14.98321425 60585,6950.219,96.108,573.756,570.413,0.0
55308.0,STARLINK-5292,PAYLOAD,2024-02-15 12:26:40,14.98321988,0.0002515,70.0005,103.5066,268.3093,91.7777,7.487e-05,8e-06,0.0,0 STARLINK-5292,1 55308U 23010AR  24046.51852661  .00000800  00000-0  74870-4 0  9995,2 55308  70.0005 103.5066 0002515 268.3093  91.7777 14.98321988 61828,6950.218,96.108,573.831,570.335,0.0
55308.0,STARLINK-5292,PAYLOAD,2024-02-15 20:27:20,14.98325942,0.0002628,70.0005,102.6659,269.8045,90.2813,3.4044e-05,3.13e-06,0.0,0 STARLINK-5292,1 55308U 23010AR  24046.85232569  .00000313  00000-0  34044-4 0  9999,2 55308  70.0005 102.6659 0002628 269.8045  90.2813 14.98325942 61878,6950.205,96.107,573.897,570.244,0.0
55308.0,STARLINK-5292,PAYLOAD,2024-02-16 04:28:00,14.98342133,0.0002162,70.0003,101.8237,277.8321,82.2593,-0.00012825,-1.623e-05,0.0,0 STARLINK-5292,1 55308U 23010AR  24047.18612165 -.00001623  00000-0 -12825-3 0  9999,2 55308  70.0003 101.8237 0002162 277.8321  82.2593 14.98342133 60739,6950.155,96.106,573.523,570.518,0.0
55308.0,STARLINK-5292,PAYLOAD,2024-02-16 12:28:40,14.98366344,0.0002322,70.0002,100.9821,277.0305,83.059,-0.00054166,-6.556e-05,0.0,0 STARLINK-5292,1 55308U 23010AR  24047.51991398 -.00006556  00000-0 -54166-3 0  9998,2 55308  70.0002 100.9821 0002322 277.0305  83.0590 14.98366344 60780,6950.081,96.105,573.559,570.332,0.0
55308.0,STARLINK-5292,PAYLOAD,2024-02-17 04:30:01,14.98329145,0.0002634,69.9999,99.2987,267.5877,92.498,2.67e-05,2.26e-06,0.0,0 STARLINK-5292,1 55308U 23010AR  24048.18752115  .00000226  00000-0  26700-4 0  9994,2 55308  69.9999  99.2987 0002634 267.5877  92.4980 14.98329145 60885,6950.196,96.107,573.891,570.23,0.0
55308.0,STARLINK-5292,PAYLOAD,2024-02-17 12:30:42,14.98327195,0.000267,69.9999,98.4571,267.2759,92.8095,6.3715e-07,-8.5e-07,0.0,0 STARLINK-5292,1 55308U 23010AR  24048.52132332 -.00000085  00000-0  63715-6 0  9998,2 55308  69.9999  98.4571 0002670 267.2759  92.8095 14.98327195 62124,6950.202,96.107,573.922,570.211,0.0
